OBJECT_NAME,OBJECT_ID,EPOCH,MEAN_MOTION,ECCENTRICITY,INCLINATION,RA_OF_ASC_NODE,ARG_OF_PERICENTER,MEAN_ANOMALY,EPHEMERIS_TYPE,CLASSIFICATION_TYPE,NORAD_CAT_ID,ELEMENT_SET_NO,REV_AT_EPOCH,BSTAR,MEAN_MOTION_DOT,MEAN_MOTION_DDOT
STARLINK-37537,2026-126A,2026-07-06T19:17:15.116352,15.75215958,.00010534,97.2847,48.7412,65.0087,295.1287,0,U,69420,999,583,.69638217E-3,.105144E-2,0
STARLINK-37585,2026-126B,2026-07-06T14:27:34.016256,15.75210253,.00010958,97.2843,48.5569,34.1466,325.9869,0,U,69421,999,580,.30677134E-3,.45913E-3,0
STARLINK-37573,2026-126C,2026-07-06T14:47:23.200800,15.75204339,.00014765,97.2844,48.5378,14.9365,345.1944,0,U,69422,999,580,.56867963E-3,.85601E-3,0
STARLINK-37820,2026-126D,2026-07-07T01:49:06.356064,15.75282259,.00015689,97.2840,49.1390,63.7456,296.3971,0,U,69423,999,588,.15751577E-2,.242578E-2,0
STARLINK-37822,2026-126E,2026-07-06T14:00:37.905984,15.75262950,.00007318,97.2843,48.5834,11.9138,348.2144,0,U,69424,999,580,.6959877E-3,.1053E-2,0
STARLINK-37836,2026-126F,2026-07-06T13:33:11.724192,15.75291307,.00011654,97.2846,48.6101,90.0208,270.1191,0,U,69425,999,580,.11949887E-2,.182775E-2,0
STARLINK-37850,2026-126G,2026-07-07T01:52:09.268320,15.75268858,.00015422,97.2839,49.1362,66.4269,293.7158,0,U,69426,999,593,.13482435E-2,.206614E-2,0
STARLINK-37823,2026-126H,2026-07-06T14:09:47.066112,15.75226330,.00007648,97.2845,48.5737,20.4419,339.6876,0,U,69427,999,580,.91134318E-3,.13824E-2,0
STARLINK-37834,2026-126J,2026-07-06T14:21:56.674368,15.75180434,.00025273,97.2840,48.5625,328.4393,31.6720,0,U,69428,999,580,.15906872E-3,.23655E-3,0
STARLINK-37857,2026-126K,2026-07-07T09:54:57.524256,15.75271054,.00012926,97.2845,49.4447,79.4529,280.6882,0,U,69429,999,593,.13391412E-2,.205202E-2,0
STARLINK-37866,2026-126L,2026-07-07T01:41:59.541792,15.75257959,.00017819,97.2844,49.1461,66.7497,293.3956,0,U,69430,999,593,.12810711E-2,.195976E-2,0
STARLINK-37555,2026-126M,2026-07-07T02:00:16.938432,15.75251108,.00012273,97.2837,49.1282,42.4983,317.6377,0,U,69431,999,593,.10555753E-2,.160737E-2,0
STARLINK-37870,2026-126N,2026-07-07T14:07:01.712928,15.75251295,.00040553,97.2861,49.6667,152.7855,207.3623,0,U,69432,999,596,.10332263E-2,.15732E-2,0
STARLINK-37872,2026-126P,2026-07-07T09:10:45.253344,15.75285493,.00023782,97.2848,49.4880,348.0583,12.0626,0,U,69433,999,593,.95049627E-3,.144675E-2,0
STARLINK-37815,2026-126Q,2026-07-06T14:33:09.523872,15.75200661,.00015747,97.2839,48.5515,9.5119,350.6176,0,U,69434,999,580,.76867628E-3,.116149E-2,0
STARLINK-37801,2026-126R,2026-07-07T10:02:04.538976,15.75282613,.0001221,97.2851,49.4394,78.5376,281.6026,0,U,69435,999,598,.13366352E-2,.204914E-2,0
STARLINK-37800,2026-126S,2026-07-06T14:15:52.807680,15.75216062,.00020844,97.2839,48.5700,355.0893,5.0352,0,U,69436,999,580,.39825826E-3,.59761E-3,0
STARLINK-37792,2026-126T,2026-07-07T14:00:01.999872,15.75183589,.000169,97.2844,49.7135,99.8460,352.7149,0,U,69437,999,602,-.13012512E-3,-.1949E-3,0
STARLINK-37783,2026-126U,2026-07-06T13:24:33.513408,15.75211979,.0001519,97.2842,48.6188,359.3329,0.7934,0,U,69438,999,585,.94015655E-3,.142602E-2,0
STARLINK-37771,2026-126V,2026-07-06T14:39:15.252480,15.75210105,.00016288,97.2846,48.5457,6.7840,353.3447,0,U,69439,999,580,.37994873E-3,.56972E-3,0
STARLINK-37747,2026-126W,2026-07-07T02:06:22.789728,15.75240955,.0000788,97.2840,49.1222,79.4980,280.6374,0,U,69440,999,588,.95409567E-3,.144937E-2,0
STARLINK-37629,2026-127A,2026-07-07T13:05:30.581376,15.75492516,.00012535,53.1586,161.2362,7.9201,352.1839,0,U,69443,999,461,.16385644E-2,.261324E-2,0
STARLINK-37509,2026-127B,2026-07-07T08:25:21.686880,15.75311217,.00015807,53.1589,162.1522,83.2622,276.8578,0,U,69444,999,458,.16379746E-2,.259099E-2,0
STARLINK-37641,2026-127C,2026-07-07T08:05:16.641024,15.75238508,.00009041,53.1570,162.0604,69.3445,290.7672,0,U,69445,999,458,.95549317E-3,.148419E-2,0
STARLINK-37522,2026-127D,2026-07-07T12:58:57.964224,15.75256110,.00009767,53.1592,161.2041,145.1483,214.9602,0,U,69446,999,461,.9906124E-3,.15412E-2,0
STARLINK-37640,2026-127E,2026-07-07T12:19:45.388992,15.75269608,.00008693,53.1603,161.0271,63.3382,296.7727,0,U,69447,999,461,.44156985E-3,.67681E-3,0
STARLINK-37572,2026-127F,2026-07-07T12:46:22.401408,15.75265222,.00012351,53.1589,161.1477,68.9562,291.1590,0,U,69448,999,461,.7518722E-3,.116344E-2,0
STARLINK-37643,2026-127G,2026-07-07T08:18:45.865152,15.73702203,.00061625,53.1591,162.1233,194.1327,165.9521,0,U,69449,999,458,.26359327E-2,.395926E-2,0
STARLINK-37601,2026-127H,2026-07-07T08:18:20.906784,15.75312750,.00006713,53.1592,162.1204,19.0882,341.0163,0,U,69450,999,458,.14814253E-2,.23358E-2,0
STARLINK-37578,2026-127J,2026-07-07T12:32:49.048224,15.75286342,.00008988,53.1563,161.0804,125.3585,234.7520,0,U,69451,999,461,.15168371E-2,.239059E-2,0
